DTUSAT                  
1 27842U 03031C   09171.55751595  .00000015  00000-0  26968-4 0  5818
2 27842  98.7040 181.6461 0010113 110.2929 249.9355 14.20983451309826
CUTE-1 (CO-55)          
1 27844U 03031E   09171.58413139  .00000006  00000-0  23193-4 0  6045
2 27844  98.7123 180.7012 0010736 129.6059 230.6063 14.20642600309743
QUAKESAT                
1 27845U 03031F   09171.53462567  .00000049  00000-0  43384-4 0  5792
2 27845  98.7192 180.0630 0009514 146.2584 213.9199 14.20275072309647
AAU CUBESAT             
1 27846U 03031G   09170.92341075  .00000025  00000-0  31567-4 0  5159
2 27846  98.7050 181.0151 0010121 112.4896 247.7365 14.20983552309736
CANX-1                  
1 27847U 03031H   09171.49532807  .00000001  00000-0  20696-4 0  5300
2 27847  98.7050 181.5704 0010183 110.7671 249.4618 14.20965694309766
CUBESAT XI-IV (CO-57)   
1 27848U 03031J   09171.56213736  .00000015  00000-0  27459-4 0  5529
2 27848  98.7139 179.7395 0010010 132.9498 227.2522 14.20444295309703
UWE-1                   
1 28892U 05043C   09171.73786428  .00000088  00000-0  27962-4 0  3668
2 28892  98.0552  61.7218 0017026 340.5829  19.4741 14.59744546194360
CUBESAT XI-V (CO-58)    
1 28895U 05043F   09169.70902316 -.00000040  00000-0  11817-5 0  3315
2 28895  98.0604  60.2832 0017622 347.4030  12.6745 14.59774837193958
NCUBE-2                 
1 28897U 05043H   09171.27460121  .00000097  00000-0  29646-4 0  8780
2 28897  98.0574  61.7148 0017214 343.5373  16.5247 14.59954657186475
CUTE-1.7+APD (CO-56)    
1 28941U 06005C   09172.00923364  .00055769  36544-5  18192-3 0  1839
2 28941  98.1346 347.1565 0083763 118.4024 242.5695 15.85135636187850
GENESAT-1               
1 29655U 06058C   09172.20138708  .00007618  00000-0  76066-4 0  7375
2 29655  40.0237 158.1601 0001282 206.9954 153.0795 15.65685304143107
CSTB1                   
1 31122U 07012F   09172.06139795  .00000551  00000-0  13192-3 0  6636
2 31122  97.9978 228.9731 0083841 261.3237  97.8440 14.55251351115720
MAST                    
1 31126U 07012K   09171.20105535  .00000131  00000-0  40554-4 0  6211
2 31126  97.9883 225.8677 0093430 270.6490  88.4022 14.53501885115475
LIBERTAD-1              
1 31128U 07012M   09171.66545972 -.00000048  00000-0  00000+0 0  6592
2 31128  97.9865 224.4698 0101609 275.0254  83.9350 14.52049599115405
POLYSAT CP3             
1 31129U 07012N   09172.09962961  .00000093  00000-0  32449-4 0    97
2 31129  97.9876 224.9871 0101379 273.4118  85.5495 14.52139741115453
CAPE1                   
1 31130U 07012P   09171.58740091  .00000257  00000-0  70422-4 0  6282
2 31130  97.9909 224.4131 0101174 274.9413  84.0227 14.52065936115184
POLYSAT CP4             
1 31132U 07012Q   09171.17150778  .00000099  00000-0  32302-4 0  6320
2 31132  97.9939 228.0306 0084269 264.2914  94.8672 14.55212426115461
NTS (CANX-6)            
1 32784U 08021B   09171.82571383  .00000087  00000-0  18033-4 0  4012
2 32784  97.9464 235.5678 0016533  18.5331 341.6473 14.81053505 61962
CUTE-1.7+APD II         
1 32785U 08021C   09171.23190876  .00000236  00000-0  36881-4 0  3951
2 32785  97.9452 235.1734 0015602  25.7461 334.4524 14.81492687 61896
COMPASS-1               
1 32787U 08021E   09171.20849581  .00000286  00000-0  43093-4 0  3873
2 32787  97.9421 235.0079 0016733  26.0103 334.1945 14.81615423 61897
AAUSAT-II               
1 32788U 08021F   09172.18906297 -.00000031  00000-0  28505-5 0  3882
2 32788  97.9402 236.0369 0016252  23.5071 336.6872 14.81737846 62040
DELFI-C3                
1 32789U 08021G   09172.21076014  .00000415  00000-0  59300-4 0  3995
2 32789  97.9472 236.2248 0016391  22.6335 337.5591 14.81726141 62047
CANX-2                  
1 32790U 08021H   09172.18009308 -.00000001  00000-0  67054-5 0  3858
2 32790  97.9451 236.0839 0016027  23.3102 336.8831 14.81478410 62015
SEEDS II                
1 32791U 08021J   09172.19727347  .00000015  00000-0  87427-5 0  3816
2 32791  97.9454 236.0219 0016836  21.6225 338.5692 14.81443562 62009
HAWKSAT 1               
1 35003U 09028C   09171.49953458  .00000982  00000-0  29782-4 0   324
2 35003  40.4705 220.5807 0027508 194.7446 165.2582 15.39873893  4867
POLYSAT CP6             
1 35004U 09028D   09171.23732222  .00002258  00000-0  60293-4 0   253
2 35004  40.4618 222.0879 0027812 194.4027 165.5982 15.40067321  4812
AEROCUBE 3              
1 35005U 09028E   09171.56544497  .00002340  00000-0  62683-4 0   263
2 35005  40.4773 220.2152 0027086 194.4945 165.5095 15.39886978  4866
